{"type":"FeatureCollection","metadata":{"source":"http://www.londonbusroutes.net/garages.htm","csv_url":"http://www.londonbusroutes.net/garages.csv","generated_at_utc":"2026-06-15T15:32:27.957Z","licence":"Open Government Licence v3.0"},"features":[{"type":"Feature","geometry":{"type":"Point","coordinates":[-0.19923,51.369141]},"properties":{"Group name":"Go-Ahead","Group website":"http://www.go-ahead.com/","Company name":"London General Transport Services Ltd","Company website":"http://www.londongeneral.co.uk","Company address":"18 Merton High Street, London, SW19 1DN","LBR garage code":"A","Garage name":"Sutton","Garage address":"Bushey Road, Sutton, SM1 1QJ","TfL garage code":"A","_geocode_source":"postcodes.io","_geocode_postcode":"SM1 1QJ","_geocode_admin_district":"Sutton","_geocode_country":"England","TfL main network routes":"80 93 151 154 213 S2","TfL night routes":"93 213","TfL school/mobility routes":"","Other routes":"","PVR":"86","Proportion of network":"1.16%"}},{"type":"Feature","geometry":{"type":"Point","coordinates":[-0.238288,51.548365]},"properties":{"Group name":"Metroline","Group website":"http://www.metroline.co.uk","Company name":"Metroline Travel Ltd.","Company website":"","Company address":"329 Edgware Road, Dollis Hill, London, NW2 6JP","LBR garage code":"AC","Garage name":"Willesden","Garage address":"287 High Road, Willesden, London, NW10 2JY","TfL garage code":"AC","_geocode_source":"postcodes.io","_geocode_postcode":"NW10 2JY","_geocode_admin_district":"Brent","_geocode_country":"England","TfL main network routes":"6 52 98 260 302 460","TfL night routes":"6 52","TfL school/mobility routes":"","Other routes":"","PVR":"100","Proportion of network":"1.34%"}},{"type":"Feature","geometry":{"type":"Point","coordinates":[-0.108213,51.612839]},"properties":{"Group name":"Arriva","Group website":"http://www.arriva.co.uk/","Company name":"Arriva London North Ltd.","Company website":"http://www.arrivalondon.com/","Company address":"16 Watsons Road, Wood Green, London, N22 7TZ","LBR garage code":"AD","Garage name":"Palmers Green","Garage address":"Regents Avenue, Palmers Green, London, N13 5UR","TfL garage code":"AD","_geocode_source":"postcodes.io","_geocode_postcode":"N13 5UR","_geocode_admin_district":"Enfield","_geocode_country":"England","TfL main network routes":"34 102 141 SL1","TfL night routes":"102","TfL school/mobility routes":"675","Other routes":"","PVR":"83","Proportion of network":"1.11%"}},{"type":"Feature","geometry":{"type":"Point","coordinates":[-0.057655,51.53572]},"properties":{"Group name":"Arriva","Group website":"http://www.arriva.co.uk/","Company name":"Arriva London North Ltd.","Company website":"http://www.arrivalondon.com/","Company address":"16 Watsons Road, Wood Green, London, N22 7TZ","LBR garage code":"AE","Garage name":"Ash Grove","Garage address":"Mare Street, South Hackney, London, E8 4RH","TfL garage code":"AE","_geocode_source":"postcodes.io","_geocode_postcode":"E8 4RH","_geocode_admin_district":"Hackney","_geocode_country":"England","TfL main network routes":"","TfL night routes":"","TfL school/mobility routes":"","Other routes":"","PVR":"0","Proportion of network":"0.00%"}},{"type":"Feature","geometry":{"type":"Point","coordinates":[-0.217993,51.462368]},"properties":{"Group name":"Go-Ahead","Group website":"http://www.go-ahead.com/","Company name":"London General Transport Services Ltd","Company website":"http://www.londongeneral.co.uk","Company address":"18 Merton High Street, London, SW19 1DN","LBR garage code":"AF","Garage name":"Putney","Garage address":"10 Chelverton Road, London, SW15 1RN","TfL garage code":"AF","_geocode_source":"postcodes.io","_geocode_postcode":"SW15 1RN","_geocode_admin_district":"Wandsworth","_geocode_country":"England","TfL main network routes":"14 22 39 74 265 430","TfL night routes":"14 N22 N74 N97","TfL school/mobility routes":"","Other routes":"","PVR":"94","Proportion of network":"1.26%"}},{"type":"Feature","geometry":{"type":"Point","coordinates":[-0.314707,51.483833]},"properties":{"Group name":"Metroline","Group website":"http://www.metroline.co.uk","Company name":"Metroline Travel Ltd.","Company website":"","Company address":"329 Edgware Road, Dollis Hill, London, NW2 6JP","LBR garage code":"AH","Garage name":"Brentford","Garage address":"Commerce Road, Brentford, Middlesex, TW8 8LZ","TfL garage code":"AH","_geocode_source":"postcodes.io","_geocode_postcode":"TW8 8LZ","_geocode_admin_district":"Hounslow","_geocode_country":"England","TfL main network routes":"9 120 190 237 481 E2 E8 H91","TfL night routes":"N9","TfL school/mobility routes":"635","Other routes":"","PVR":"101","Proportion of network":"1.36%"}},{"type":"Feature","geometry":{"type":"Point","coordinates":[-0.181662,51.416567]},"properties":{"Group name":"Go-Ahead","Group website":"http://www.go-ahead.com/","Company name":"London General Transport Services Ltd","Company website":"http://www.londongeneral.co.uk","Company address":"18 Merton High Street, London, SW19 1DN","LBR garage code":"AL","Garage name":"Merton","Garage address":"High Street, London, SW19 1DN","TfL garage code":"AL","_geocode_source":"postcodes.io","_geocode_postcode":"SW19 1DN","_geocode_admin_district":"Merton","_geocode_country":"England","TfL main network routes":"57 131 152 157 163 164 200 219 413","TfL night routes":"57","TfL school/mobility routes":"163","Other routes":"","PVR":"129","Proportion of network":"1.73%"}},{"type":"Feature","geometry":{"type":"Point","coordinates":[-0.302711,51.537651]},"properties":{"Group name":"Metroline","Group website":"http://www.metroline.co.uk","Company name":"Metroline Travel Ltd.","Company website":"","Company address":"329 Edgware Road, Dollis Hill, London, NW2 6JP","LBR garage code":"AO","Garage name":"Athlon Road","Garage address":"Unit 1-3, Capital Business Centre Athlon Road, Wembley, HA0 1YU","TfL garage code":"AO","_geocode_source":"postcodes.io","_geocode_postcode":"HA0 1YU","_geocode_admin_district":"Brent","_geocode_country":"England","TfL main network routes":"83 224 245","TfL night routes":"","TfL school/mobility routes":"","Other routes":"","PVR":"34","Proportion of network":"0.46%"}},{"type":"Feature","geometry":{"type":"Point","coordinates":[-0.072359,51.588722]},"properties":{"Group name":"Arriva","Group website":"http://www.arriva.co.uk/","Company name":"Arriva London North Ltd.","Company website":"http://www.arrivalondon.com/","Company address":"16 Watsons Road, Wood Green, London, N22 7TZ","LBR garage code":"AR","Garage name":"Tottenham","Garage address":"Philip Lane, Tottenham, London, N15 4JB","TfL garage code":"AR","_geocode_source":"postcodes.io","_geocode_postcode":"N15 4JB","_geocode_admin_district":"Haringey","_geocode_country":"England","TfL main network routes":"41 149 243 259 341 349","TfL night routes":"149 243 341 N41","TfL school/mobility routes":"","Other routes":"","PVR":"124","Proportion of network":"1.67%"}},{"type":"Feature","geometry":{"type":"Point","coordinates":[-0.355561,51.471985]},"properties":{"Group name":"First","Group website":"http://www.firstgroup.com","Company name":"London United Busways Ltd","Company website":"","Company address":"72-74 Chiswick High Road, London, W4 1SY","LBR garage code":"AV","Garage name":"Hounslow","Garage address":"Kingsley Road, Hounslow, TW3 1PA","TfL garage code":"AV","_geocode_source":"postcodes.io","_geocode_postcode":"TW3 1PA","_geocode_admin_district":"Hounslow","_geocode_country":"England","TfL main network routes":"110 117 203 419 H22 H37 H98","TfL night routes":"","TfL school/mobility routes":"695 696 698","Other routes":"","PVR":"88","Proportion of network":"1.18%"}},{"type":"Feature","geometry":{"type":"Point","coordinates":[-0.017188,51.60255]},"properties":{"Group name":"Stagecoach London","Group website":"http://www.stagecoachbus.com/","Company name":"East London Bus & Coach Co. Ltd.","Company website":"https://www.stagecoachbus.com/promos-and-offers/london","Company address":"151 Ruckholt Road, Leyton, London, E10 5PB","LBR garage code":"AW","Garage name":"Walthamstow Avenue","Garage address":"Walthamstow Avenue, London, E4 8SP","TfL garage code":"AW","_geocode_source":"postcodes.io","_geocode_postcode":"E4 8SP","_geocode_admin_district":"Waltham Forest","_geocode_country":"England","TfL main network routes":"379 385 397 W11 W12 W16 W19 W5","TfL night routes":"","TfL school/mobility routes":"","Other routes":"","PVR":"68","Proportion of network":"0.91%"}},{"type":"Feature","geometry":{"type":"Point","coordinates":[-0.133069,51.383331]},"properties":{"Group name":"Transport UK","Group website":"https://www.transport-uk.com/","Company name":"Transport UK London Bus Ltd.","Company website":"","Company address":"301 Camberwell New Road, London, SE5 0TF","LBR garage code":"BC","Garage name":"Beddington","Garage address":"Unit 10, Beddington Cross, Beddington Farm Road, Croydon, CR0 4XH","TfL garage code":"BC","_geocode_source":"postcodes.io","_geocode_postcode":"CR0 4XH","_geocode_admin_district":"Sutton","_geocode_country":"England","TfL main network routes":"109 130 201 270 315 367 404 407 433 464 493 S1 S3","TfL night routes":"N109","TfL school/mobility routes":"639 655 670","Other routes":"","PVR":"151","Proportion of network":"2.03%"}},{"type":"Feature","geometry":{"type":"Point","coordinates":[0.095221,51.547054]},"properties":{"Group name":"Stagecoach London","Group website":"http://www.stagecoachbus.com/","Company name":"East London Bus & Coach Co. Ltd.","Company website":"https://www.stagecoachbus.com/promos-and-offers/london","Company address":"151 Ruckholt Road, Leyton, London, E10 5PB","LBR garage code":"BK","Garage name":"Barking","Garage address":"205 Longbridge Road, Barking, Essex, IG11 8UE","TfL garage code":"BK","_geocode_source":"postcodes.io","_geocode_postcode":"IG11 8UE","_geocode_admin_district":"Redbridge","_geocode_country":"England","TfL main network routes":"62 145 167 169 173 179 238 362 462","TfL night routes":"238 N551","TfL school/mobility routes":"667","Other routes":"","PVR":"105","Proportion of network":"1.41%"}},{"type":"Feature","geometry":{"type":"Point","coordinates":[-0.12373,51.446122]},"properties":{"Group name":"Arriva","Group website":"http://www.arriva.co.uk/","Company name":"Arriva London South Ltd.","Company website":"http://www.arrivalondon.com/","Company address":"16 Watsons Road, Wood Green, London, N22 7TZ","LBR garage code":"BN","Garage name":"Brixton Hill","Garage address":"239 Brixton Hill, London, SW2 1NR","TfL garage code":"BN","_geocode_source":"postcodes.io","_geocode_postcode":"SW2 1NR","_geocode_admin_district":"Lambeth","_geocode_country":"England","TfL main network routes":"50 59 137 319 417","TfL night routes":"N137","TfL school/mobility routes":"","Other routes":"","PVR":"94","Proportion of network":"1.26%"}},{"type":"Feature","geometry":{"type":"Point","coordinates":[-0.273136,51.611541]},"properties":{"Group name":"First","Group website":"http://www.firstgroup.com","Company name":"London Sovereign Limited","Company website":"","Company address":"72-74 Chiswick High Road, London, W4 1SY","LBR garage code":"BT","Garage name":"Edgware","Garage address":"Approach Road, Edgware, Middlesex, HA8 7AN","TfL garage code":"BT","_geocode_source":"postcodes.io","_geocode_postcode":"HA8 7AN","_geocode_admin_district":"Barnet","_geocode_country":"England","TfL main network routes":"79 125 226 326 340 H12 288 303 H11 H14","TfL night routes":"N5","TfL school/mobility routes":"","Other routes":"","PVR":"86","Proportion of network":"1.16%"}},{"type":"Feature","geometry":{"type":"Point","coordinates":[-0.023324,51.53235]},"properties":{"Group name":"Stagecoach London","Group website":"http://www.stagecoachbus.com/","Company name":"East London Bus & Coach Co. Ltd.","Company website":"https://www.stagecoachbus.com/promos-and-offers/london","Company address":"151 Ruckholt Road, Leyton, London, E10 5PB","LBR garage code":"BW","Garage name":"Bow","Garage address":"Fairfield Road, Bow, London, E3 2QP","TfL garage code":"BW","_geocode_source":"postcodes.io","_geocode_postcode":"E3 2QP","_geocode_admin_district":"Tower Hamlets","_geocode_country":"England","TfL main network routes":"8 25 205 425","TfL night routes":"N8 N25 N205","TfL school/mobility routes":"","Other routes":"","PVR":"95","Proportion of network":"1.28%"}},{"type":"Feature","geometry":{"type":"Point","coordinates":[0.153803,51.460146]},"properties":{"Group name":"Go-Ahead","Group website":"http://www.go-ahead.com/","Company name":"London General Transport Services Ltd t/a London Central","Company website":"http://www.londoncentral.com","Company address":"18 Merton High Street, London, SW19 1DN","LBR garage code":"BX","Garage name":"Bexleyheath","Garage address":"Erith Road, Bexleyheath, Kent, DA7 6BX","TfL garage code":"BX","_geocode_source":"postcodes.io","_geocode_postcode":"DA7 6BX","_geocode_admin_district":"Bexley","_geocode_country":"England","TfL main network routes":"89 99 132 269 401 486 B11 B12 B13 B15 B16","TfL night routes":"486","TfL school/mobility routes":"","Other routes":"","PVR":"114","Proportion of network":"1.53%"}},{"type":"Feature","geometry":{"type":"Point","coordinates":[-0.1386,51.383725]},"properties":{"Group name":"Go-Ahead","Group website":"http://www.go-ahead.com/","Company name":"London General Transport Services Ltd t/a Metrobus","Company website":"http://www.go-ahead-london.com/","Company address":"18 Merton High Street, London, SW19 1DN","LBR garage code":"C","Garage name":"Croydon","Garage address":"134 Beddington Lane, Beddington, Croydon, CR0 4TD","TfL garage code":"C","_geocode_source":"postcodes.io","_geocode_postcode":"CR0 4TD","_geocode_admin_district":"Sutton","_geocode_country":"England","TfL main network routes":"119 127 264 359 403 434 439 450 463 S4 SL7","TfL night routes":"119 264","TfL school/mobility routes":"633","Other routes":"","PVR":"114","Proportion of network":"1.53%"}},{"type":"Feature","geometry":{"type":"Point","coordinates":[-0.05318,51.547327]},"properties":{"Group name":"Arriva","Group website":"http://www.arriva.co.uk/","Company name":"Arriva London North Ltd.","Company website":"http://www.arrivalondon.com/","Company address":"16 Watsons Road, Wood Green, London, N22 7TZ","LBR garage code":"CT","Garage name":"Clapton","Garage address":"15 Bohemia Place, Mare Street, London, E8 1DU","TfL garage code":"CT","_geocode_source":"postcodes.io","_geocode_postcode":"E8 1DU","_geocode_admin_district":"Hackney","_geocode_country":"England","TfL main network routes":"38 73 253","TfL night routes":"N38 N73 N253","TfL school/mobility routes":"","Other routes":"","PVR":"79","Proportion of network":"1.06%"}},{"type":"Feature","geometry":{"type":"Point","coordinates":[-0.436579,51.513793]},"properties":{"Group name":"Transport UK","Group website":"https://www.transport-uk.com/","Company name":"Transport UK West London Bus Ltd.","Company website":"","Company address":"301 Camberwell New Road, London, SE5 0TF","LBR garage code":"DH","Garage name":"Hayes","Garage address":"Dawley Road, Hayes UB3 1EF","TfL garage code":"DH","_geocode_source":"postcodes.io","_geocode_postcode":"UB3 1EF","_geocode_admin_district":"Hillingdon","_geocode_country":"England","TfL main network routes":"278 350 E6 U5 U7 U9","TfL night routes":"","TfL school/mobility routes":"","Other routes":"","PVR":"47","Proportion of network":"0.63%"}},{"type":"Feature","geometry":{"type":"Point","coordinates":[0.055874,51.500295]},"properties":{"Group name":"Go-Ahead","Group website":"http://www.go-ahead.com/","Company name":"London General Transport Services Ltd t/a Blue Triangle","Company website":"http://www.go-ahead-london.com/","Company address":"18 Merton High Street, London, SW19 1DN","LBR garage code":"DS","Garage name":"Henley Road","Garage address":"Henley Road, North Woolwich, London, E16 2EJ","TfL garage code":"DS","_geocode_source":"postcodes.io","_geocode_postcode":"E16 2EJ","_geocode_admin_district":"Newham","_geocode_country":"England","TfL main network routes":"5 15 69 115 129 330 376 473 474 D3 SL4","TfL night routes":"69 474 N15","TfL school/mobility routes":"","Other routes":"","PVR":"138","Proportion of network":"1.85%"}},{"type":"Feature","geometry":{"type":"Point","coordinates":[0.220779,51.450192]},"properties":{"Group name":"Arriva","Group website":"http://www.arriva.co.uk/","Company name":"Arriva London North Ltd.","Company website":"http://www.arrivalondon.com/","Company address":"16 Watsons Road, Wood Green, London, N22 7TZ","LBR garage code":"DT","Garage name":"Dartford","Garage address":"Central Road, Dartford, Kent, DA1 5BG","TfL garage code":"DT","_geocode_source":"postcodes.io","_geocode_postcode":"DA1 5BG","_geocode_admin_district":"Dartford","_geocode_country":"England","TfL main network routes":"96 229 301 335 428 492","TfL night routes":"","TfL school/mobility routes":"","Other routes":"","PVR":"75","Proportion of network":"1.01%"}},{"type":"Feature","geometry":{"type":"Point","coordinates":[0.113116,51.532318]},"properties":{"Group name":"Arriva","Group website":"http://www.arriva.co.uk/","Company name":"Arriva London North Ltd.","Company website":"http://www.arrivalondon.com/","Company address":"16 Watsons Road, Wood Green, London, N22 7TZ","LBR garage code":"DX","Garage name":"Barking","Garage address":"638 Ripple Road, Barking, IG11 0SR","TfL garage code":"DX","_geocode_source":"postcodes.io","_geocode_postcode":"IG11 0SR","_geocode_admin_district":"Barking and Dagenham","_geocode_country":"England","TfL main network routes":"150 175 SL2","TfL night routes":"","TfL school/mobility routes":"","Other routes":"","PVR":"44","Proportion of network":"0.59%"}},{"type":"Feature","geometry":{"type":"Point","coordinates":[-0.050895,51.648654]},"properties":{"Group name":"Arriva","Group website":"http://www.arriva.co.uk/","Company name":"Arriva London North Ltd.","Company website":"http://www.arrivalondon.com/","Company address":"16 Watsons Road, Wood Green, London, N22 7TZ","LBR garage code":"E","Garage name":"Enfield","Garage address":"Southbury Road, Ponders End, Middlesex, EN3 4HX","TfL garage code":"E","_geocode_source":"postcodes.io","_geocode_postcode":"EN3 4HX","_geocode_admin_district":"Enfield","_geocode_country":"England","TfL main network routes":"121 191 192 217 279 307 313 377","TfL night routes":"N279","TfL school/mobility routes":"313","Other routes":"","PVR":"122","Proportion of network":"1.64%"}},{"type":"Feature","geometry":{"type":"Point","coordinates":[-0.04144,51.607777]},"properties":{"Group name":"Arriva","Group website":"http://www.arriva.co.uk/","Company name":"Arriva London North Ltd.","Company website":"http://www.arrivalondon.com/","Company address":"16 Watsons Road, Wood Green, London, N22 7TZ","LBR garage code":"EC","Garage name":"Edmonton","Garage address":"Unit 1E, Towpath Road, Stonehill Business Park, London N18 3QX","TfL garage code":"EC","_geocode_source":"postcodes.io","_geocode_postcode":"N18 3QX","_geocode_admin_district":"Enfield","_geocode_country":"England","TfL main network routes":"158","TfL night routes":"158","TfL school/mobility routes":"","Other routes":"","PVR":"25","Proportion of network":"0.34%"}},{"type":"Feature","geometry":{"type":"Point","coordinates":[-0.273136,51.611541]},"properties":{"Group name":"Metroline","Group website":"http://www.metroline.co.uk","Company name":"Metroline Travel Ltd.","Company website":"","Company address":"329 Edgware Road, Dollis Hill, London, NW2 6JP","LBR garage code":"EW","Garage name":"Edgware","Garage address":"Approach Road, Edgware, Middlesex, HA8 7AN","TfL garage code":"EW","_geocode_source":"postcodes.io","_geocode_postcode":"HA8 7AN","_geocode_admin_district":"Barnet","_geocode_country":"England","TfL main network routes":"113 142 204 240 251","TfL night routes":"N113","TfL school/mobility routes":"606 642","Other routes":"","PVR":"79","Proportion of network":"1.06%"}},{"type":"Feature","geometry":{"type":"Point","coordinates":[-0.35139,51.433889]},"properties":{"Group name":"First","Group website":"http://www.firstgroup.com","Company name":"London United Busways Ltd","Company website":"","Company address":"72-74 Chiswick High Road, London, W4 1SY","LBR garage code":"FW","Garage name":"Fulwell","Garage address":"Wellington Road, Fulwell, Middlesex, TW2 5NX","TfL garage code":"FW","_geocode_source":"postcodes.io","_geocode_postcode":"TW2 5NX","_geocode_admin_district":"Richmond upon Thames","_geocode_country":"England","TfL main network routes":"33 65 71 216 281 290 371 K3","TfL night routes":"281 N33 N65","TfL school/mobility routes":"681","Other routes":"","PVR":"125","Proportion of network":"1.68%"}},{"type":"Feature","geometry":{"type":"Point","coordinates":[-0.35306,51.523809]},"properties":{"Group name":"Metroline","Group website":"http://www.metroline.co.uk","Company name":"Metroline West Ltd.","Company website":"","Company address":"329 Edgware Road, Dollis Hill, London, NW2 6JP","LBR garage code":"G","Garage name":"Greenford","Garage address":"Council Depot, Greenford Road, Greenford UB6 9AR","TfL garage code":"G","_geocode_source":"postcodes.io","_geocode_postcode":"UB6 9AR","_geocode_admin_district":"Ealing","_geocode_country":"England","TfL main network routes":"92 95 282 E1 E9 SL8","TfL night routes":"","TfL school/mobility routes":"640","Other routes":"","PVR":"91","Proportion of network":"1.22%"}},{"type":"Feature","geometry":{"type":"Point","coordinates":[-0.159942,51.38872]},"properties":{"Group name":"Go-Ahead","Group website":"http://www.go-ahead.com/","Company name":"London General Transport Services Ltd","Company website":"http://www.londongeneral.co.uk","Company address":"18 Merton High Street, London, SW19 1DN","LBR garage code":"GM","Garage name":"Ellis Road","Garage address":"Goat Road, CR4 4HU","TfL garage code":"GM","_geocode_source":"postcodes.io","_geocode_postcode":"CR4 4HU","_geocode_admin_district":"Merton","_geocode_country":"England","TfL main network routes":"80 280 470","TfL night routes":"","TfL school/mobility routes":"","Other routes":"","PVR":"26","Proportion of network":"0.35%"}},{"type":"Feature","geometry":{"type":"Point","coordinates":[-0.358547,51.506315]},"properties":{"Group name":"Transport UK","Group website":"https://www.transport-uk.com/","Company name":"Transport UK West London Bus Ltd.","Company website":"","Company address":"301 Camberwell New Road, London, SE5 0TF","LBR garage code":"GW","Garage name":"Southall","Garage address":"Great Western Industrial Park, Armstrong Way, Southall, UB2 4SD","TfL garage code":"GW","_geocode_source":"postcodes.io","_geocode_postcode":"UB2 4SD","_geocode_admin_district":"Ealing","_geocode_country":"England","TfL main network routes":"195 207 427 482 E10 E11 E5 E7 H28","TfL night routes":"N207","TfL school/mobility routes":"618 969","Other routes":"","PVR":"116","Proportion of network":"1.56%"}},{"type":"Feature","geometry":{"type":"Point","coordinates":[0.29398,51.477398]},"properties":{"Group name":"Arriva","Group website":"http://www.arriva.co.uk/","Company name":"Arriva London North Ltd.","Company website":"http://www.arrivalondon.com/","Company address":"16 Watsons Road, Wood Green, London, N22 7TZ","LBR garage code":"GY","Garage name":"Grays","Garage address":"Unit 7, Europa Park, London Road, Grays, Essex, RM20 4DB","TfL garage code":"GY","_geocode_source":"postcodes.io","_geocode_postcode":"RM20 4DB","_geocode_admin_district":"Thurrock","_geocode_country":"England","TfL main network routes":"66 103 248 370 375","TfL night routes":"","TfL school/mobility routes":"","Other routes":"","PVR":"56","Proportion of network":"0.75%"}},{"type":"Feature","geometry":{"type":"Point","coordinates":[-0.340525,51.605644]},"properties":{"Group name":"Metroline","Group website":"http://www.metroline.co.uk","Company name":"Metroline Travel Ltd.","Company website":"","Company address":"329 Edgware Road, Dollis Hill, London, NW2 6JP","LBR garage code":"HD","Garage name":"Harrow Weald","Garage address":"467 High Road, Harrow Weald, Middlesex, HA3 6EJ","TfL garage code":"HD","_geocode_source":"postcodes.io","_geocode_postcode":"HA3 6EJ","_geocode_admin_district":"Harrow","_geocode_country":"England","TfL main network routes":"140 182 186 258","TfL night routes":"N98 N140","TfL school/mobility routes":"","Other routes":"","PVR":"72","Proportion of network":"0.97%"}},{"type":"Feature","geometry":{"type":"Point","coordinates":[-0.057655,51.53572]},"properties":{"Group name":"Stagecoach London","Group website":"http://www.stagecoachbus.com/","Company name":"East London Bus & Coach Co. Ltd.","Company website":"https://www.stagecoachbus.com/promos-and-offers/london","Company address":"151 Ruckholt Road, Leyton, London, E10 5PB","LBR garage code":"HK","Garage name":"Ash Grove","Garage address":"Mare Street, South Hackney, London, E8 4RH","TfL garage code":"HK","_geocode_source":"postcodes.io","_geocode_postcode":"E8 4RH","_geocode_admin_district":"Hackney","_geocode_country":"England","TfL main network routes":"26 242 277 309 310 388 394 D6 D7","TfL night routes":"N26 N242 N277 N550","TfL school/mobility routes":"","Other routes":"","PVR":"108","Proportion of network":"1.45%"}},{"type":"Feature","geometry":{"type":"Point","coordinates":[-0.014839,51.555687]},"properties":{"Group name":"Stagecoach London","Group website":"http://www.stagecoachbus.com/","Company name":"Lea Interchange Bus Co. Ltd.","Company website":"https://www.stagecoachbus.com/promos-and-offers/london","Company address":"151 Ruckholt Road, Leyton, London, E10 5PB","LBR garage code":"LI","Garage name":"Lea Interchange","Garage address":"151 Ruckholt Road, Leyton, London, E10 5PB","TfL garage code":"HO","_geocode_source":"postcodes.io","_geocode_postcode":"E10 5PB","_geocode_admin_district":"Waltham Forest","_geocode_country":"England","TfL main network routes":"58 86 97 135 236 276 308 339 488 D8 W13 W14","TfL night routes":"","TfL school/mobility routes":"W13","Other routes":"","PVR":"150","Proportion of network":"2.01%"}},{"type":"Feature","geometry":{"type":"Point","coordinates":[-0.131605,51.56265]},"properties":{"Group name":"Metroline","Group website":"http://www.metroline.co.uk","Company name":"Metroline Travel Ltd.","Company website":"","Company address":"329 Edgware Road, Dollis Hill, London, NW2 6JP","LBR garage code":"HT","Garage name":"Holloway","Garage address":"37A Pemberton Gardens, London, N19 5RR","TfL garage code":"HT","_geocode_source":"postcodes.io","_geocode_postcode":"N19 5RR","_geocode_admin_district":"Islington","_geocode_country":"England","TfL main network routes":"4 17 43 46 153 234 274 390 393 C11 W7","TfL night routes":"43 390 N20","TfL school/mobility routes":"603","Other routes":"","PVR":"157","Proportion of network":"2.11%"}},{"type":"Feature","geometry":{"type":"Point","coordinates":[-0.034189,51.426687]},"properties":{"Group name":"Stagecoach London","Group website":"http://www.stagecoachbus.com/","Company name":"South East London & Kent Bus Co. Ltd.","Company website":"https://www.stagecoachbus.com/promos-and-offers/london","Company address":"151 Ruckholt Road, Leyton, London, E10 5PB","LBR garage code":"KB","Garage name":"Kangley Bridge Road","Garage address":"Kangley Bridge Road, Lower Sydenham, London, SE26 5BA","TfL garage code":"KB","_geocode_source":"postcodes.io","_geocode_postcode":"SE26 5BA","_geocode_admin_district":"Lewisham","_geocode_country":"England","TfL main network routes":"181 284 356","TfL night routes":"","TfL school/mobility routes":"","Other routes":"","PVR":"34","Proportion of network":"0.46%"}},{"type":"Feature","geometry":{"type":"Point","coordinates":[-0.125933,51.540599]},"properties":{"Group name":"Metroline","Group website":"http://www.metroline.co.uk","Company name":"Metroline Travel Ltd.","Company website":"","Company address":"329 Edgware Road, Dollis Hill, London, NW2 6JP","LBR garage code":"KC","Garage name":"King's Cross","Garage address":"Freight Lane, London N1C 4BE","TfL garage code":"KC","_geocode_source":"postcodes.io","_geocode_postcode":"N1C 4BE","_geocode_admin_district":"Camden","_geocode_country":"England","TfL main network routes":"30 274","TfL night routes":"","TfL school/mobility routes":"","Other routes":"","PVR":"27","Proportion of network":"0.36%"}},{"type":"Feature","geometry":{"type":"Point","coordinates":[0.087681,51.356558]},"properties":{"Group name":"Go-Ahead","Group website":"http://www.go-ahead.com/","Company name":"London General Transport Services Ltd t/a Metrobus","Company website":"http://www.go-ahead-london.com/","Company address":"18 Merton High Street, London, SW19 1DN","LBR garage code":"MB","Garage name":"Orpington","Garage address":"Oak Farm, Farnborough Hill, Green Street Green, Orpington, Kent, BR6 6DA","TfL garage code":"MB","_geocode_source":"postcodes.io","_geocode_postcode":"BR6 6DA","_geocode_admin_district":"Bromley","_geocode_country":"England","TfL main network routes":"208 233 320 353 358 R1 R10 R11 R2 R3 R4 R5 R7 R8 R9","TfL night routes":"","TfL school/mobility routes":"664","Other routes":"","PVR":"104","Proportion of network":"1.40%"}},{"type":"Feature","geometry":{"type":"Point","coordinates":[0.003631,51.493448]},"properties":{"Group name":"Go-Ahead","Group website":"http://www.go-ahead.com/","Company name":"London General Transport Services Ltd t/a London Central","Company website":"http://www.londoncentral.com","Company address":"18 Merton High Street, London, SW19 1DN","LBR garage code":"MG","Garage name":"Morden Wharf (Greenwich)","Garage address":"Morden Wharf Road, Greenwich, London, SE10 0NU","TfL garage code":"MG","_geocode_source":"postcodes.io","_geocode_postcode":"SE10 0NU","_geocode_admin_district":"Greenwich","_geocode_country":"England","TfL main network routes":"51 178 244 286 291 386 469 SL11","TfL night routes":"N472","TfL school/mobility routes":"601 624 625 658","Other routes":"","PVR":"113","Proportion of network":"1.52%"}},{"type":"Feature","geometry":{"type":"Point","coordinates":[-0.161935,51.139062]},"properties":{"Group name":"Go-Ahead","Group website":"http://www.go-ahead.com/","Company name":"Metrobus Ltd","Company website":"http://www.metrobus.co.uk","Company address":"Wheatstone Close, Manor Royal, Crawley, West Sussex, RH10 9UA","LBR garage code":"CY","Garage name":"Crawley","Garage address":"Wheatstone Close, Manor Royal, Crawley, West Sussex, RH10 9UA","TfL garage code":"MY","_geocode_source":"postcodes.io","_geocode_postcode":"RH10 9UA","_geocode_admin_district":"Crawley","_geocode_country":"England","TfL main network routes":"","TfL night routes":"","TfL school/mobility routes":"","Other routes":"","PVR":"0","Proportion of network":"0.00%"}},{"type":"Feature","geometry":{"type":"Point","coordinates":[-0.103945,51.430084]},"properties":{"Group name":"Arriva","Group website":"http://www.arriva.co.uk/","Company name":"Arriva London South Ltd.","Company website":"http://www.arrivalondon.com/","Company address":"16 Watsons Road, Wood Green, London, N22 7TZ","LBR garage code":"N","Garage name":"Norwood","Garage address":"Ernest Avenue, West Norwood, London, SE27 0HN","TfL garage code":"N","_geocode_source":"postcodes.io","_geocode_postcode":"SE27 0HN","_geocode_admin_district":"Lambeth","_geocode_country":"England","TfL main network routes":"2 196 198 202 249 410 432 468 SL6","TfL night routes":"N2","TfL school/mobility routes":"627","Other routes":"","PVR":"132","Proportion of network":"1.77%"}},{"type":"Feature","geometry":{"type":"Point","coordinates":[-0.051211,51.600189]},"properties":{"Group name":"Go-Ahead","Group website":"http://www.go-ahead.com/","Company name":"London General Transport Services Ltd","Company website":"http://www.londongeneral.co.uk","Company address":"18 Merton High Street, London, SW19 1DN","LBR garage code":"NP","Garage name":"Northumberland Park","Garage address":"Marsh Lane, Tottenham, London, N17 0XB","TfL garage code":"NP","_geocode_source":"postcodes.io","_geocode_postcode":"N17 0XB","_geocode_admin_district":"Haringey","_geocode_country":"England","TfL main network routes":"91 106 123 144 184 212 230 232 299 318 357 389 399 444 456 476 W15","TfL night routes":"123 N91","TfL school/mobility routes":"677","Other routes":"","PVR":"200","Proportion of network":"2.69%"}},{"type":"Feature","geometry":{"type":"Point","coordinates":[0.175214,51.583954]},"properties":{"Group name":"Stagecoach London","Group website":"http://www.stagecoachbus.com/","Company name":"East London Bus & Coach Co. Ltd.","Company website":"https://www.stagecoachbus.com/promos-and-offers/london","Company address":"151 Ruckholt Road, Leyton, London, E10 5PB","LBR garage code":"NS","Garage name":"Romford","Garage address":"North Street, Romford, Essex, RM1 1DS","TfL garage code":"NS","_geocode_source":"postcodes.io","_geocode_postcode":"RM1 1DS","_geocode_admin_district":"Havering","_geocode_country":"England","TfL main network routes":"86 128 193 247 294 296 365 498","TfL night routes":"128 365 N86","TfL school/mobility routes":"","Other routes":"","PVR":"88","Proportion of network":"1.18%"}},{"type":"Feature","geometry":{"type":"Point","coordinates":[-0.04417,51.474579]},"properties":{"Group name":"Go-Ahead","Group website":"http://www.go-ahead.com/","Company name":"London General Transport Services Ltd t/a London Central","Company website":"http://www.londoncentral.com","Company address":"18 Merton High Street, London, SW19 1DN","LBR garage code":"NX","Garage name":"New Cross","Garage address":"208 New Cross Road, London, SE14 5UH","TfL garage code":"NX","_geocode_source":"postcodes.io","_geocode_postcode":"SE14 5UH","_geocode_admin_district":"Lewisham","_geocode_country":"England","TfL main network routes":"21 36 108 171 172 321 343 436 453 P4","TfL night routes":"36 108 321 453 N21 N89 N136 N171 N343","TfL school/mobility routes":"","Other routes":"","PVR":"189","Proportion of network":"2.54%"}},{"type":"Feature","geometry":{"type":"Point","coordinates":[-0.176509,51.697702]},"properties":{"Group name":"Metroline","Group website":"http://www.metroline.co.uk","Company name":"Metroline Travel Ltd.","Company website":"","Company address":"329 Edgware Road, Dollis Hill, London, NW2 6JP","LBR garage code":"PB","Garage name":"Potters Bar","Garage address":"High Street, Potters Bar, Herts, EN6 5BE","TfL garage code":"PB","_geocode_source":"postcodes.io","_geocode_postcode":"EN6 5BE","_geocode_admin_district":"Hertsmere","_geocode_country":"England","TfL main network routes":"107 134 231 263 317 327 382 384 491 W8 W9","TfL night routes":"134 N263","TfL school/mobility routes":"617 626 629 634","Other routes":"","PVR":"124","Proportion of network":"1.67%"}},{"type":"Feature","geometry":{"type":"Point","coordinates":[0.083469,51.491193]},"properties":{"Group name":"Stagecoach London","Group website":"http://www.stagecoachbus.com/","Company name":"South East London & Kent Bus Co. Ltd.","Company website":"https://www.stagecoachbus.com/promos-and-offers/london","Company address":"151 Ruckholt Road, Leyton, London, E10 5PB","LBR garage code":"PD","Garage name":"Plumstead","Garage address":"Pettman Crescent, Plumstead, London, SE28 0BJ","TfL garage code":"PD","_geocode_source":"postcodes.io","_geocode_postcode":"SE28 0BJ","_geocode_admin_district":"Greenwich","_geocode_country":"England","TfL main network routes":"53 122 161 177 180 380 422","TfL night routes":"N53","TfL school/mobility routes":"602 669 672","Other routes":"","PVR":"139","Proportion of network":"1.87%"}},{"type":"Feature","geometry":{"type":"Point","coordinates":[-0.061565,51.46574]},"properties":{"Group name":"Go-Ahead","Group website":"http://www.go-ahead.com/","Company name":"London General Transport Services Ltd t/a London Central","Company website":"http://www.londoncentral.com","Company address":"18 Merton High Street, London, SW19 1DN","LBR garage code":"PM","Garage name":"Peckham","Garage address":"Blackpool Road, Peckham, London, SE15 3SE","TfL garage code":"PM","_geocode_source":"postcodes.io","_geocode_postcode":"SE15 3SE","_geocode_admin_district":"Southwark","_geocode_country":"England","TfL main network routes":"37 78 197 P12","TfL night routes":"37","TfL school/mobility routes":"","Other routes":"","PVR":"61","Proportion of network":"0.82%"}},{"type":"Feature","geometry":{"type":"Point","coordinates":[-0.318859,51.533792]},"properties":{"Group name":"Metroline","Group website":"http://www.metroline.co.uk","Company name":"Metroline Travel Ltd.","Company website":"","Company address":"329 Edgware Road, Dollis Hill, London, NW2 6JP","LBR garage code":"PV","Garage name":"Perivale [East]","Garage address":"Alperton Lane, Western Avenue, Greenford, Middlesex, UB6 8DW","TfL garage code":"PV","_geocode_source":"postcodes.io","_geocode_postcode":"UB6 8DW","_geocode_admin_district":"Ealing","_geocode_country":"England","TfL main network routes":"7 83 90 245 297 483","TfL night routes":"297 N7 N83","TfL school/mobility routes":"","Other routes":"","PVR":"77","Proportion of network":"1.03%"}},{"type":"Feature","geometry":{"type":"Point","coordinates":[-0.09577,51.474116]},"properties":{"Group name":"Go-Ahead","Group website":"http://www.go-ahead.com/","Company name":"London General Transport Services Ltd t/a London Central","Company website":"http://www.londoncentral.com","Company address":"18 Merton High Street, London, SW19 1DN","LBR garage code":"Q","Garage name":"Camberwell","Garage address":"1 Warner Road, Camberwell, London, SE5 9LU","TfL garage code":"Q","_geocode_source":"postcodes.io","_geocode_postcode":"SE5 9LU","_geocode_admin_district":"Southwark","_geocode_country":"England","TfL main network routes":"1 12 35 40 42 100 108 176 185 188 355 360 484","TfL night routes":"12 35 176 188 N1","TfL school/mobility routes":"","Other routes":"","PVR":"199","Proportion of network":"2.67%"}},{"type":"Feature","geometry":{"type":"Point","coordinates":[-0.145866,51.472356]},"properties":{"Group name":"Transport UK","Group website":"https://www.transport-uk.com/","Company name":"Transport UK London Bus Ltd.","Company website":"","Company address":"301 Camberwell New Road, London, SE5 0TF","LBR garage code":"QB","Garage name":"Battersea","Garage address":"Silverthorne Road, Battersea, London, SW8 3HE","TfL garage code":"QB","_geocode_source":"postcodes.io","_geocode_postcode":"SW8 3HE","_geocode_admin_district":"Wandsworth","_geocode_country":"England","TfL main network routes":"24 27 133 156 159 211 306 337 344 345 415 485 C3 G1","TfL night routes":"24 159 344 345 N27 N133","TfL school/mobility routes":"","Other routes":"","PVR":"207","Proportion of network":"2.78%"}},{"type":"Feature","geometry":{"type":"Point","coordinates":[-0.109155,51.50283]},"properties":{"Group name":"Go-Ahead","Group website":"http://www.go-ahead.com/","Company name":"London General Transport Services Ltd","Company website":"http://www.londongeneral.co.uk","Company address":"18 Merton High Street, London, SW19 1DN","LBR garage code":"RA","Garage name":"Waterloo","Garage address":"Cornwall Road, London, SE1 8TE","TfL garage code":"RA","_geocode_source":"postcodes.io","_geocode_postcode":"SE1 8TE","_geocode_admin_district":"Lambeth","_geocode_country":"England","TfL main network routes":"14 214 BL1","TfL night routes":"214","TfL school/mobility routes":"","Other routes":"","PVR":"36","Proportion of network":"0.48%"}},{"type":"Feature","geometry":{"type":"Point","coordinates":[0.18476,51.515664]},"properties":{"Group name":"Stagecoach London","Group website":"http://www.stagecoachbus.com/","Company name":"East London Bus & Coach Co. Ltd.","Company website":"https://www.stagecoachbus.com/promos-and-offers/london","Company address":"151 Ruckholt Road, Leyton, London, E10 5PB","LBR garage code":"RM","Garage name":"Rainham","Garage address":"Unit 2, Albright Industrial Estate, Ferry Lane, Rainham, Essex, RM13 9BU","TfL garage code":"RM","_geocode_source":"postcodes.io","_geocode_postcode":"RM13 9BU","_geocode_admin_district":"Havering","_geocode_country":"England","TfL main network routes":"165 174 252 256 287 346 365 372 496 499","TfL night routes":"","TfL school/mobility routes":"674","Other routes":"","PVR":"114","Proportion of network":"1.53%"}},{"type":"Feature","geometry":{"type":"Point","coordinates":[-0.251556,51.529976]},"properties":{"Group name":"First","Group website":"http://www.firstgroup.com","Company name":"London United Busways Ltd","Company website":"","Company address":"72-74 Chiswick High Road, London, W4 1SY","LBR garage code":"RP","Garage name":"Park Royal","Garage address":"Atlas Road, Harlesden, London, NW10 6DN","TfL garage code":"RP","_geocode_source":"postcodes.io","_geocode_postcode":"NW10 6DN","_geocode_admin_district":"Ealing","_geocode_country":"England","TfL main network routes":"","TfL night routes":"","TfL school/mobility routes":"","Other routes":"","PVR":"0","Proportion of network":"0.00%"}},{"type":"Feature","geometry":{"type":"Point","coordinates":[0.096456,51.523066]},"properties":{"Group name":"Go-Ahead","Group website":"http://www.go-ahead.com/","Company name":"London General Transport Services Ltd t/a Blue Triangle","Company website":"http://www.go-ahead-london.com/","Company address":"18 Merton High Street, London, SW19 1DN","LBR garage code":"RR","Garage name":"River Road","Garage address":"51 River Road, London, IG11 0DA","TfL garage code":"RR","_geocode_source":"postcodes.io","_geocode_postcode":"IG11 0DA","_geocode_admin_district":"Barking and Dagenham","_geocode_country":"England","TfL main network routes":"5 101 104 147 262 304 325 364 366 368 396 EL1 EL2 EL3","TfL night routes":"N15 EL1","TfL school/mobility routes":"608 646 652 656 679 686","Other routes":"","PVR":"205","Proportion of network":"2.75%"}},{"type":"Feature","geometry":{"type":"Point","coordinates":[-0.226176,51.501934]},"properties":{"Group name":"First","Group website":"http://www.firstgroup.com","Company name":"London United Busways Ltd","Company website":"","Company address":"72-74 Chiswick High Road, London, W4 1SY","LBR garage code":"S","Garage name":"Shepherd's Bush","Garage address":"Wells Road, London, W12 8DA","TfL garage code":"S","_geocode_source":"postcodes.io","_geocode_postcode":"W12 8DA","_geocode_admin_district":"Hammersmith and Fulham","_geocode_country":"England","TfL main network routes":"49 70 72 94 148 C1","TfL night routes":"94 148 N72","TfL school/mobility routes":"","Other routes":"","PVR":"95","Proportion of network":"1.28%"}},{"type":"Feature","geometry":{"type":"Point","coordinates":[-0.067328,51.574593]},"properties":{"Group name":"Arriva","Group website":"http://www.arriva.co.uk/","Company name":"Arriva London North Ltd.","Company website":"http://www.arrivalondon.com/","Company address":"16 Watsons Road, Wood Green, London, N22 7TZ","LBR garage code":"SF","Garage name":"Stamford Hill","Garage address":"Rookwood Road, London N16 6SS","TfL garage code":"SF","_geocode_source":"postcodes.io","_geocode_postcode":"N16 6SS","_geocode_admin_district":"Hackney","_geocode_country":"England","TfL main network routes":"19 67 76 254","TfL night routes":"76 N19","TfL school/mobility routes":"","Other routes":"","PVR":"75","Proportion of network":"1.01%"}},{"type":"Feature","geometry":{"type":"Point","coordinates":[-0.361549,51.476457]},"properties":{"Group name":"Metroline","Group website":"http://www.metroline.co.uk","Company name":"Metroline Travel Ltd.","Company website":"","Company address":"329 Edgware Road, Dollis Hill, London, NW2 6JP","LBR garage code":"SG","Garage name":"Lampton","Garage address":"27A Spring Grove Rd, Hounslow TW3 4BE","TfL garage code":"SG","_geocode_source":"postcodes.io","_geocode_postcode":"TW3 4BE","_geocode_admin_district":"Hounslow","_geocode_country":"England","TfL main network routes":"81 120 H32","TfL night routes":"","TfL school/mobility routes":"","Other routes":"","PVR":"44","Proportion of network":"0.59%"}},{"type":"Feature","geometry":{"type":"Point","coordinates":[-0.593132,51.512943]},"properties":{"Group name":"First","Group website":"http://www.firstgroup.com","Company name":"First Beeline Slough","Company website":"http://www.firstbeeline.co.uk","Company address":"Brunel Bus Station, Wellington Street, Slough, SL1 1XN","LBR garage code":"SH","Garage name":"Slough","Garage address":"Stanley Cottages, Stoke Road, Slough, SL2 5AQ","TfL garage code":"SH","_geocode_source":"postcodes.io","_geocode_postcode":"SL2 5AQ","_geocode_admin_district":"Slough","_geocode_country":"England","TfL main network routes":"","TfL night routes":"","TfL school/mobility routes":"","Other routes":"","PVR":"0","Proportion of network":"0.00%"}},{"type":"Feature","geometry":{"type":"Point","coordinates":[0.054502,51.500553]},"properties":{"Group name":"Go-Ahead","Group website":"http://www.go-ahead.com/","Company name":"London General Transport Services Ltd t/a Docklands Buses","Company website":"http://www.go-ahead-london.com/","Company address":"18 Merton High Street, London, SW19 1DN","LBR garage code":"SI","Garage name":"Silvertown","Garage address":"Factory Road, Silvertown, London, E16 2EL","TfL garage code":"SI","_geocode_source":"postcodes.io","_geocode_postcode":"E16 2EL","_geocode_admin_district":"Newham","_geocode_country":"England","TfL main network routes":"300","TfL night routes":"","TfL school/mobility routes":"","Other routes":"","PVR":"11","Proportion of network":"0.15%"}},{"type":"Feature","geometry":{"type":"Point","coordinates":[-0.035919,51.426275]},"properties":{"Group name":"Go-Ahead","Group website":"http://www.go-ahead.com/","Company name":"London General Transport Services Ltd t/a London Central","Company website":"http://www.londoncentral.com","Company address":"18 Merton High Street, London, SW19 1DN","LBR garage code":"SM","Garage name":"Sydenham","Garage address":"Kangley Bridge Road, Lower Sydenham, London, SE26 5AQ","TfL garage code":"SM","_geocode_source":"postcodes.io","_geocode_postcode":"SE26 5AQ","_geocode_admin_district":"Lewisham","_geocode_country":"England","TfL main network routes":"126 162 227 322 352 354","TfL night routes":"","TfL school/mobility routes":"","Other routes":"","PVR":"58","Proportion of network":"0.78%"}},{"type":"Feature","geometry":{"type":"Point","coordinates":[-0.222522,51.724027]},"properties":{"Group name":"Sullivan Buses","Group website":"http://www.sullivanbuses.com","Company name":"Sullivan Buses Ltd.","Company website":"","Company address":"First Floor, Deards House, South Mimms Service Area, St Albans Road, Potters Bar, Herts, EN6 3NE","LBR garage code":"NM","Garage name":"North Mymms","Garage address":"Swanland Road, Water End, North Mymms AL9 7TS","TfL garage code":"SN","_geocode_source":"postcodes.io","_geocode_postcode":"AL9 7TS","_geocode_admin_district":"Welwyn Hatfield","_geocode_country":"England","TfL main network routes":"","TfL night routes":"","TfL school/mobility routes":"","Other routes":"","PVR":"0","Proportion of network":"0.00%"}},{"type":"Feature","geometry":{"type":"Point","coordinates":[-0.358842,51.584292]},"properties":{"Group name":"First","Group website":"http://www.firstgroup.com","Company name":"London Sovereign Limited","Company website":"","Company address":"72-74 Chiswick High Road, London, W4 1SY","LBR garage code":"SO","Garage name":"Harrow","Garage address":"331 Pinner Road, Harrow, HA1 4HN","TfL garage code":"SO","_geocode_source":"postcodes.io","_geocode_postcode":"HA1 4HN","_geocode_admin_district":"Harrow","_geocode_country":"England","TfL main network routes":"183 395 398 H10 H18 H19 H9 SL10 SL9","TfL night routes":"","TfL school/mobility routes":"","Other routes":"","PVR":"80","Proportion of network":"1.07%"}},{"type":"Feature","geometry":{"type":"Point","coordinates":[-0.123662,51.474125]},"properties":{"Group name":"Go-Ahead","Group website":"http://www.go-ahead.com/","Company name":"London General Transport Services Ltd","Company website":"http://www.londongeneral.co.uk","Company address":"18 Merton High Street, London, SW19 1DN","LBR garage code":"SW","Garage name":"Stockwell","Garage address":"Binfield Road, London, SW4 6ST","TfL garage code":"SW","_geocode_source":"postcodes.io","_geocode_postcode":"SW4 6ST","_geocode_admin_district":"Lambeth","_geocode_country":"England","TfL main network routes":"11 44 77 87 88 155 170 209 333 378 424 533","TfL night routes":"88 N11 N44 N87 N155","TfL school/mobility routes":"690","Other routes":"","PVR":"158","Proportion of network":"2.12%"}},{"type":"Feature","geometry":{"type":"Point","coordinates":[-0.00875,51.573884]},"properties":{"Group name":"Stagecoach London","Group website":"http://www.stagecoachbus.com/","Company name":"East London Bus & Coach Co. Ltd.","Company website":"https://www.stagecoachbus.com/promos-and-offers/london","Company address":"151 Ruckholt Road, Leyton, London, E10 5PB","LBR garage code":"T","Garage name":"Leyton","Garage address":"High Road, Leyton, London, E10 6AD","TfL garage code":"T","_geocode_source":"postcodes.io","_geocode_postcode":"E10 6AD","_geocode_admin_district":"Waltham Forest","_geocode_country":"England","TfL main network routes":"20 55 56 215 257 275","TfL night routes":"N55","TfL school/mobility routes":"657","Other routes":"","PVR":"92","Proportion of network":"1.24%"}},{"type":"Feature","geometry":{"type":"Point","coordinates":[0.045001,51.375099]},"properties":{"Group name":"Stagecoach London","Group website":"http://www.stagecoachbus.com/","Company name":"South East London & Kent Bus Co. Ltd.","Company website":"https://www.stagecoachbus.com/promos-and-offers/london","Company address":"151 Ruckholt Road, Leyton, London, E10 5PB","LBR garage code":"TB","Garage name":"Bromley","Garage address":"111 Hastings Road, Bromley, Kent, BR2 8NH","TfL garage code":"TB","_geocode_source":"postcodes.io","_geocode_postcode":"BR2 8NH","_geocode_admin_district":"Bromley","_geocode_country":"England","TfL main network routes":"61 146 246 261 314 336 B14 SL3","TfL night routes":"","TfL school/mobility routes":"638 684","Other routes":"","PVR":"86","Proportion of network":"1.16%"}},{"type":"Feature","geometry":{"type":"Point","coordinates":[-0.097512,51.354252]},"properties":{"Group name":"Arriva","Group website":"http://www.arriva.co.uk/","Company name":"Arriva London South Ltd.","Company website":"http://www.arrivalondon.com/","Company address":"16 Watsons Road, Wood Green, London, N22 7TZ","LBR garage code":"TC","Garage name":"Croydon","Garage address":"Brighton Road, Croydon, Surrey, CR2 6EL","TfL garage code":"TC","_geocode_source":"postcodes.io","_geocode_postcode":"CR2 6EL","_geocode_admin_district":"Croydon","_geocode_country":"England","TfL main network routes":"60 166 194 312 405 412 466 SL5","TfL night routes":"","TfL school/mobility routes":"60 466 645 685","Other routes":"","PVR":"98","Proportion of network":"1.32%"}},{"type":"Feature","geometry":{"type":"Point","coordinates":[-0.347578,51.437063]},"properties":{"Group name":"Transport UK","Group website":"https://www.transport-uk.com/","Company name":"Transport UK West London Bus Ltd.","Company website":"","Company address":"301 Camberwell New Road, London, SE5 0TF","LBR garage code":"TF","Garage name":"Fulwell (Twickenham)","Garage address":"The Old Tram Depot, Stanley Road, Twickenham, Middlesex, TW2 5NP","TfL garage code":"TF","_geocode_source":"postcodes.io","_geocode_postcode":"TW2 5NP","_geocode_admin_district":"Richmond upon Thames","_geocode_country":"England","TfL main network routes":"111 267 285 465 490 H20 H25 H26 R68 R70","TfL night routes":"111 285","TfL school/mobility routes":"671","Other routes":"","PVR":"127","Proportion of network":"1.71%"}},{"type":"Feature","geometry":{"type":"Point","coordinates":[-0.114381,51.39323]},"properties":{"Group name":"Arriva","Group website":"http://www.arriva.co.uk/","Company name":"Arriva London South Ltd.","Company website":"http://www.arrivalondon.com/","Company address":"16 Watsons Road, Wood Green, London, N22 7TZ","LBR garage code":"TH","Garage name":"Thornton Heath","Garage address":"719 London Road, Thornton Heath, CR7 6AU","TfL garage code":"TH","_geocode_source":"postcodes.io","_geocode_postcode":"CR7 6AU","_geocode_admin_district":"Croydon","_geocode_country":"England","TfL main network routes":"64 250 255 289 410","TfL night routes":"64 N250","TfL school/mobility routes":"612 663 689","Other routes":"","PVR":"78","Proportion of network":"1.05%"}},{"type":"Feature","geometry":{"type":"Point","coordinates":[-0.134834,51.386219]},"properties":{"Group name":"First","Group website":"http://www.firstgroup.com","Company name":"Tram Operations Limited","Company website":"","Company address":"22 Coomber Way, Beddington, Croydon, CR0 4TQ","LBR garage code":"TK","Garage name":"Therapia Lane","Garage address":"22 Coomber Way, Beddington, Croydon, CR0 4TQ","TfL garage code":"TK","_geocode_source":"postcodes.io","_geocode_postcode":"CR0 4TQ","_geocode_admin_district":"Sutton","_geocode_country":"England","TfL main network routes":"1 2 3 4","TfL night routes":"","TfL school/mobility routes":"","Other routes":"","PVR":"28","Proportion of network":"0.38%"}},{"type":"Feature","geometry":{"type":"Point","coordinates":[-0.018598,51.433618]},"properties":{"Group name":"Stagecoach London","Group website":"http://www.stagecoachbus.com/","Company name":"South East London & Kent Bus Co. Ltd.","Company website":"https://www.stagecoachbus.com/promos-and-offers/london","Company address":"151 Ruckholt Road, Leyton, London, E10 5PB","LBR garage code":"TL","Garage name":"Catford","Garage address":"180 Bromley Road, Catford, London, SE6 2XA","TfL garage code":"TL","_geocode_source":"postcodes.io","_geocode_postcode":"SE6 2XA","_geocode_admin_district":"Lewisham","_geocode_country":"England","TfL main network routes":"47 54 75 124 136 138 160 199 225 273","TfL night routes":"47 N199","TfL school/mobility routes":"621 660 661","Other routes":"","PVR":"133","Proportion of network":"1.79%"}},{"type":"Feature","geometry":{"type":"Point","coordinates":[-0.278685,51.375857]},"properties":{"Group name":"First","Group website":"http://www.firstgroup.com","Company name":"London United Busways Ltd","Company website":"","Company address":"72-74 Chiswick High Road, London, W4 1SY","LBR garage code":"TV","Garage name":"Tolworth","Garage address":"Kingston Road, Tolworth, KT5 9NU","TfL garage code":"TV","_geocode_source":"postcodes.io","_geocode_postcode":"KT5 9NU","_geocode_admin_district":"Kingston upon Thames","_geocode_country":"England","TfL main network routes":"85 293 406 411 418 467 K1 K2 K4 K5","TfL night routes":"85","TfL school/mobility routes":"613 662 665","Other routes":"","PVR":"77","Proportion of network":"1.03%"}},{"type":"Feature","geometry":{"type":"Point","coordinates":[-0.240742,51.771925]},"properties":{"Group name":"Uno","Group website":"http://www.unobus.co.uk","Company name":"University Bus Ltd","Company website":"","Company address":"College Lane, Hatfield, AL10 9AB","LBR garage code":"HF","Garage name":"Hatfield","Garage address":"Gypsy Moth Avenue, Hatfield Business Park, Hatfield, Hertfordshire, AL10 9BS","TfL garage code":"UB","_geocode_source":"postcodes.io","_geocode_postcode":"AL10 9BS","_geocode_admin_district":"Welwyn Hatfield","_geocode_country":"England","TfL main network routes":"292 298 383","TfL night routes":"","TfL school/mobility routes":"628 643 653 683 688 699","Other routes":"","PVR":"34","Proportion of network":"0.46%"}},{"type":"Feature","geometry":{"type":"Point","coordinates":[-0.48901,51.536817]},"properties":{"Group name":"Metroline","Group website":"http://www.metroline.co.uk","Company name":"Metroline West Ltd.","Company website":"","Company address":"329 Edgware Road, Dollis Hill, London, NW2 6JP","LBR garage code":"UE","Garage name":"Uxbridge Industrial Estate","Garage address":"51 Wallingford Road, Cowley, UB8 2RW","TfL garage code":"UX","_geocode_source":"postcodes.io","_geocode_postcode":"UB8 2RW","_geocode_admin_district":"Hillingdon","_geocode_country":"England","TfL main network routes":"114 222 331 A10 H13 U1 U10 U2 U3 U4","TfL night routes":"222","TfL school/mobility routes":"697","Other routes":"","PVR":"82","Proportion of network":"1.10%"}},{"type":"Feature","geometry":{"type":"Point","coordinates":[-0.249484,51.493417]},"properties":{"Group name":"First","Group website":"http://www.firstgroup.com","Company name":"London United Busways Ltd","Company website":"","Company address":"72-74 Chiswick High Road, London, W4 1SY","LBR garage code":"V","Garage name":"Stamford Brook","Garage address":"72-74 Chiswick High Road, London, W4 1SY","TfL garage code":"V","_geocode_source":"postcodes.io","_geocode_postcode":"W4 1SY","_geocode_admin_district":"Hounslow","_geocode_country":"England","TfL main network routes":"220 272 440 E3","TfL night routes":"220","TfL school/mobility routes":"","Other routes":"","PVR":"66","Proportion of network":"0.89%"}},{"type":"Feature","geometry":{"type":"Point","coordinates":[-0.221893,51.562317]},"properties":{"Group name":"Metroline","Group website":"http://www.metroline.co.uk","Company name":"Metroline Travel Ltd.","Company website":"","Company address":"329 Edgware Road, Dollis Hill, London, NW2 6JP","LBR garage code":"W","Garage name":"Cricklewood","Garage address":"329 Edgware Road, Dollis Hill, London, NW2 6JP","TfL garage code":"W","_geocode_source":"postcodes.io","_geocode_postcode":"NW2 6JP","_geocode_admin_district":"Brent","_geocode_country":"England","TfL main network routes":"16 32 112 139 143 189 210 266 268 324 328 H2 H3","TfL night routes":"139 189 N32 N266","TfL school/mobility routes":"631 632","Other routes":"","PVR":"175","Proportion of network":"2.35%"}},{"type":"Feature","geometry":{"type":"Point","coordinates":[0.003785,51.51993]},"properties":{"Group name":"Stagecoach London","Group website":"http://www.stagecoachbus.com/","Company name":"East London Bus & Coach Co. Ltd.","Company website":"https://www.stagecoachbus.com/promos-and-offers/london","Company address":"151 Ruckholt Road, Leyton, London, E10 5PB","LBR garage code":"WH","Garage name":"West Ham","Garage address":"Stephenson Street, Canning Town, London, E16 4SA","TfL garage code":"WH","_geocode_source":"postcodes.io","_geocode_postcode":"E16 4SA","_geocode_admin_district":"Newham","_geocode_country":"England","TfL main network routes":"241 323 SCS","TfL night routes":"","TfL school/mobility routes":"649 650 651 667 687","Other routes":"","PVR":"32","Proportion of network":"0.43%"}},{"type":"Feature","geometry":{"type":"Point","coordinates":[-0.247113,51.533048]},"properties":{"Group name":"Metroline","Group website":"http://www.metroline.co.uk","Company name":"Metroline West Ltd.","Company website":"","Company address":"329 Edgware Road, Dollis Hill, London, NW2 6JP","LBR garage code":"WJ","Garage name":"Willesden Junction","Garage address":"Station Road, Harlesden, NW10 4XB","TfL garage code":"WJ","_geocode_source":"postcodes.io","_geocode_postcode":"NW10 4XB","_geocode_admin_district":"Ealing","_geocode_country":"England","TfL main network routes":"28 187 206 223 228 316 487 H17","TfL night routes":"N28","TfL school/mobility routes":"","Other routes":"","PVR":"93","Proportion of network":"1.25%"}},{"type":"Feature","geometry":{"type":"Point","coordinates":[-0.398697,51.463832]},"properties":{"Group name":"First","Group website":"http://www.firstgroup.com","Company name":"London United Busways Ltd","Company website":"","Company address":"72-74 Chiswick High Road, London, W4 1SY","LBR garage code":"WK","Garage name":"Hounslow Heath","Garage address":"Tamian Way, Hounslow, Middlesex, TW4 6BL","TfL garage code":"WK","_geocode_source":"postcodes.io","_geocode_postcode":"TW4 6BL","_geocode_admin_district":"Hounslow","_geocode_country":"England","TfL main network routes":"105 116 235 423","TfL night routes":"105","TfL school/mobility routes":"","Other routes":"","PVR":"51","Proportion of network":"0.69%"}},{"type":"Feature","geometry":{"type":"Point","coordinates":[-0.095974,51.475441]},"properties":{"Group name":"Transport UK","Group website":"https://www.transport-uk.com/","Company name":"Transport UK London Bus Ltd.","Company website":"","Company address":"301 Camberwell New Road, London, SE5 0TF","LBR garage code":"WL","Garage name":"Walworth","Garage address":"301 Camberwell New Road, London, SE5 0TF","TfL garage code":"WL","_geocode_source":"postcodes.io","_geocode_postcode":"SE5 0TF","_geocode_admin_district":"Southwark","_geocode_country":"England","TfL main network routes":"3 45 63 68 363 381 C10 P13 P5","TfL night routes":"N3 N63 N68 N381","TfL school/mobility routes":"","Other routes":"","PVR":"154","Proportion of network":"2.07%"}},{"type":"Feature","geometry":{"type":"Point","coordinates":[-0.112397,51.597952]},"properties":{"Group name":"Arriva","Group website":"http://www.arriva.co.uk/","Company name":"Arriva London North Ltd.","Company website":"http://www.arrivalondon.com/","Company address":"16 Watsons Road, Wood Green, London, N22 7TZ","LBR garage code":"WN","Garage name":"Wood Green","Garage address":"Jolly Butchers Hill, High Road, Wood Green, London, N22 7TZ","TfL garage code":"WN","_geocode_source":"postcodes.io","_geocode_postcode":"N22 7TZ","_geocode_admin_district":"Haringey","_geocode_country":"England","TfL main network routes":"29 141 221 329 W3 W4 W6","TfL night routes":"N29","TfL school/mobility routes":"616","Other routes":"","PVR":"118","Proportion of network":"1.58%"}},{"type":"Feature","geometry":{"type":"Point","coordinates":[-0.201514,51.523365]},"properties":{"Group name":"First","Group website":"http://www.firstgroup.com","Company name":"London Transit","Company website":"","Company address":"72-74 Chiswick High Road, London, W4 1SY","LBR garage code":"X","Garage name":"Westbourne Park","Garage address":"Great Western Road, London, W9 3NW","TfL garage code":"X","_geocode_source":"postcodes.io","_geocode_postcode":"W9 3NW","_geocode_admin_district":"Westminster","_geocode_country":"England","TfL main network routes":"13 18 23 31 218 295 452","TfL night routes":"13 23 295 N18 N31 N118","TfL school/mobility routes":"","Other routes":"","PVR":"132","Proportion of network":"1.77%"}}]}